{"type": "FeatureCollection", "features": [ {"type": "Feature", "properties": {"norad_id": 34909, "name": "COSMOS 2251 DEB", "group": "cosmos-2251-debris", "lat": 1.2509994239218631, "lon": 90.44989676364814, "alt_km": 680.395375487853, "timestamp": "2025-12-05T20:43:02.449012+00:00", "meta": {"OBJECT_NAME": "COSMOS 2251 DEB", "OBJECT_ID": "1993-036ADE", "EPOCH": "2025-12-02T16:20:39.593184", "MEAN_MOTION": 14.77677518, "ECCENTRICITY": 0.00852182, "INCLINATION": 74.0135, "RA_OF_ASC_NODE": 96.3432, "ARG_OF_PERICENTER": 234.3085, "MEAN_ANOMALY": 125.0138, "EPHEMERIS_TYPE": 0, "CLASSIFICATION_TYPE": "U", "NORAD_CAT_ID": 34909, "ELEMENT_SET_NO": 999, "REV_AT_EPOCH": 66703, "BSTAR": 0.00090528683, "MEAN_MOTION_DOT": 6.857e-05, "MEAN_MOTION_DDOT": 0}, "tle": {"line1": "1 34909U 93036ADE 25336.68101381  .00006857  00000+0  90529-3 0  9996", "line2": "2 34909  74.0135  96.3432 0085218 234.3085 125.0138 14.77677518667038"}}, "geometry": {"type": "Point", "coordinates": [90.44989676364814, 1.2509994239218631]}}, {"type": "Feature", "properties": {"norad_id": 34910, "name": "COSMOS 2251 DEB", "group": "cosmos-2251-debris", "lat": 0.7378410462759881, "lon": -67.93651019806516, "alt_km": 899.8158013216225, "timestamp": "2025-12-05T20:43:02.449022+00:00", "meta": {"OBJECT_NAME": "COSMOS 2251 DEB", "OBJECT_ID": "1993-036ADF", "EPOCH": "2025-12-04T03:27:09.174816", "MEAN_MOTION": 13.3765034, "ECCENTRICITY": 0.04679235, "INCLINATION": 73.8763, "RA_OF_ASC_NODE": 114.9889, "ARG_OF_PERICENTER": 235.2756, "MEAN_ANOMALY": 311.3517, "EPHEMERIS_TYPE": 0, "CLASSIFICATION_TYPE": "U", "NORAD_CAT_ID": 34910, "ELEMENT_SET_NO": 999, "REV_AT_EPOCH": 81409, "BSTAR": 0.0018660381, "MEAN_MOTION_DOT": 1.821e-05, "MEAN_MOTION_DDOT": 0}, "tle": {"line1": "1 34910U 93036ADF 25338.14385619  .00001821  00000+0  18660-2 0  9990", "line2": "2 34910  73.8763 114.9889 0467923 235.2756 311.3517 13.37650340814099"}}, "geometry": {"type": "Point", "coordinates": [-67.93651019806516, 0.7378410462759881]}}, {"type": "Feature", "properties": {"norad_id": 34911, "name": "COSMOS 2251 DEB", "group": "cosmos-2251-debris", "lat": -12.075342763435463, "lon": 81.35889135635927, "alt_km": 756.7836143716568, "timestamp": "2025-12-05T20:43:02.449031+00:00", "meta": {"OBJECT_NAME": "COSMOS 2251 DEB", "OBJECT_ID": "1993-036ADG", "EPOCH": "2025-12-05T05:43:21.566784", "MEAN_MOTION": 14.5935152, "ECCENTRICITY": 0.00832466, "INCLINATION": 74.0412, "RA_OF_ASC_NODE": 259.0394, "ARG_OF_PERICENTER": 26.3928, "MEAN_ANOMALY": 124.8186, "EPHEMERIS_TYPE": 0, "CLASSIFICATION_TYPE": "U", "NORAD_CAT_ID": 34911, "ELEMENT_SET_NO": 999, "REV_AT_EPOCH": 88477, "BSTAR": 0.00032729781, "MEAN_MOTION_DOT": 1.594e-05, "MEAN_MOTION_DDOT": 0}, "tle": {"line1": "1 34911U 93036ADG 25339.23844406  .00001594  00000+0  32730-3 0  9998", "line2": "2 34911  74.0412 259.0394 0083246  26.3928 124.8186 14.59351520884772"}}, "geometry": {"type": "Point", "coordinates": [81.35889135635927, -12.075342763435463]}}, {"type": "Feature", "properties": {"norad_id": 34913, "name": "COSMOS 2251 DEB", "group": "cosmos-2251-debris", "lat": 73.73217497304248, "lon": 14.05707400777171, "alt_km": 757.7990076001606, "timestamp": "2025-12-05T20:43:02.449042+00:00", "meta": {"OBJECT_NAME": "COSMOS 2251 DEB", "OBJECT_ID": "1993-036ADJ", "EPOCH": "2025-12-04T06:07:38.155008", "MEAN_MOTION": 14.34633258, "ECCENTRICITY": 0.0020057, "INCLINATION": 74.0277, "RA_OF_ASC_NODE": 298.0463, "ARG_OF_PERICENTER": 50.7163, "MEAN_ANOMALY": 15.0056, "EPHEMERIS_TYPE": 0, "CLASSIFICATION_TYPE": "U", "NORAD_CAT_ID": 34913, "ELEMENT_SET_NO": 999, "REV_AT_EPOCH": 65066, "BSTAR": 0.00010199, "MEAN_MOTION_DOT": 2.63e-06, "MEAN_MOTION_DDOT": 0}, "tle": {"line1": "1 34913U 93036ADJ 25338.25530272  .00000263  00000+0  10199-3 0  9991", "line2": "2 34913  74.0277 298.0463 0020057  50.7163  15.0056 14.34633258650666"}}, "geometry": {"type": "Point", "coordinates": [14.05707400777171, 73.73217497304248]}}, {"type": "Feature", "properties": {"norad_id": 34918, "name": "COSMOS 2251 DEB", "group": "cosmos-2251-debris", "lat": -57.53869300485885, "lon": -59.92726018784892, "alt_km": 672.775947577039, "timestamp": "2025-12-05T20:43:02.449052+00:00", "meta": {"OBJECT_NAME": "COSMOS 2251 DEB", "OBJECT_ID": "1993-036ADP", "EPOCH": "2025-12-02T07:49:20.078112", "MEAN_MOTION": 14.60858458, "ECCENTRICITY": 0.0034182, "INCLINATION": 74.0712, "RA_OF_ASC_NODE": 333.4916, "ARG_OF_PERICENTER": 302.4495, "MEAN_ANOMALY": 120.4085, "EPHEMERIS_TYPE": 0, "CLASSIFICATION_TYPE": "U", "NORAD_CAT_ID": 34918, "ELEMENT_SET_NO": 999, "REV_AT_EPOCH": 65184, "BSTAR": 0.0024749, "MEAN_MOTION_DOT": 0.00012194, "MEAN_MOTION_DDOT": 0}, "tle": {"line1": "1 34918U 93036ADP 25336.32592683  .00012194  00000+0  24749-2 0  9997", "line2": "2 34918  74.0712 333.4916 0034182 302.4495 120.4085 14.60858458651845"}}, "geometry": {"type": "Point", "coordinates": [-59.92726018784892, -57.53869300485885]}}, {"type": "Feature", "properties": {"norad_id": 34924, "name": "COSMOS 2251 DEB", "group": "cosmos-2251-debris", "lat": -35.47251909118603, "lon": 90.79994060322808, "alt_km": 726.4221177901454, "timestamp": "2025-12-05T20:43:02.449062+00:00", "meta": {"OBJECT_NAME": "COSMOS 2251 DEB", "OBJECT_ID": "1993-036ADV", "EPOCH": "2025-12-05T03:04:17.971392", "MEAN_MOTION": 14.59906916, "ECCENTRICITY": 0.00551206, "INCLINATION": 74.0402, "RA_OF_ASC_NODE": 103.9681, "ARG_OF_PERICENTER": 190.3489, "MEAN_ANOMALY": 229.5741, "EPHEMERIS_TYPE": 0, "CLASSIFICATION_TYPE": "U", "NORAD_CAT_ID": 34924, "ELEMENT_SET_NO": 999, "REV_AT_EPOCH": 87612, "BSTAR": 0.0023760695, "MEAN_MOTION_DOT": 0.00011614, "MEAN_MOTION_DDOT": 0}, "tle": {"line1": "1 34924U 93036ADV 25339.12798578  .00011614  00000+0  23761-2 0  9995", "line2": "2 34924  74.0402 103.9681 0055120 190.3489 229.5741 14.59906916876120"}}, "geometry": {"type": "Point", "coordinates": [90.79994060322808, -35.47251909118603]}}, {"type": "Feature", "properties": {"norad_id": 34944, "name": "COSMOS 2251 DEB", "group": "cosmos-2251-debris", "lat": 54.789758525233, "lon": 40.0308020501608, "alt_km": 699.1576604782531, "timestamp": "2025-12-05T20:43:02.449072+00:00", "meta": {"OBJECT_NAME": "COSMOS 2251 DEB", "OBJECT_ID": "1993-036ADX", "EPOCH": "2025-12-04T10:12:22.291200", "MEAN_MOTION": 14.14155566, "ECCENTRICITY": 0.0219658, "INCLINATION": 73.7499, "RA_OF_ASC_NODE": 247.036, "ARG_OF_PERICENTER": 96.0924, "MEAN_ANOMALY": 266.529, "EPHEMERIS_TYPE": 0, "CLASSIFICATION_TYPE": "U", "NORAD_CAT_ID": 34944, "ELEMENT_SET_NO": 999, "REV_AT_EPOCH": 63965, "BSTAR": 0.0011088, "MEAN_MOTION_DOT": 2.638e-05, "MEAN_MOTION_DDOT": 0}, "tle": {"line1": "1 34944U 93036ADX 25338.42525800  .00002638  00000+0  11088-2 0  9990", "line2": "2 34944  73.7499 247.0360 0219658  96.0924 266.5290 14.14155566639655"}}, "geometry": {"type": "Point", "coordinates": [40.0308020501608, 54.789758525233]}}, {"type": "Feature", "properties": {"norad_id": 34946, "name": "COSMOS 2251 DEB", "group": "cosmos-2251-debris", "lat": 58.29098573323055, "lon": 147.66318404282572, "alt_km": 647.8401277934572, "timestamp": "2025-12-05T20:43:02.449082+00:00", "meta": {"OBJECT_NAME": "COSMOS 2251 DEB", "OBJECT_ID": "1993-036ADZ", "EPOCH": "2025-12-04T17:54:16.503840", "MEAN_MOTION": 14.61930707, "ECCENTRICITY": 0.00489502, "INCLINATION": 74.0233, "RA_OF_ASC_NODE": 357.4293, "ARG_OF_PERICENTER": 137.1209, "MEAN_ANOMALY": 223.3792, "EPHEMERIS_TYPE": 0, "CLASSIFICATION_TYPE": "U", "NORAD_CAT_ID": 34946, "ELEMENT_SET_NO": 999, "REV_AT_EPOCH": 88092, "BSTAR": 0.001194522, "MEAN_MOTION_DOT": 6.058e-05, "MEAN_MOTION_DDOT": 0}, "tle": {"line1": "1 34946U 93036ADZ 25338.74602435  .00006058  00000+0  11945-2 0  9999", "line2": "2 34946  74.0233 357.4293 0048950 137.1209 223.3792 14.61930707880922"}}, "geometry": {"type": "Point", "coordinates": [147.66318404282572, 58.29098573323055]}}, {"type": "Feature", "properties": {"norad_id": 34949, "name": "COSMOS 2251 DEB", "group": "cosmos-2251-debris", "lat": 70.77592932427832, "lon": 178.36743425337266, "alt_km": 696.936195922558, "timestamp": "2025-12-05T20:43:02.449092+00:00", "meta": {"OBJECT_NAME": "COSMOS 2251 DEB", "OBJECT_ID": "1993-036AEC", "EPOCH": "2025-12-05T02:26:13.832736", "MEAN_MOTION": 14.73914183, "ECCENTRICITY": 0.00804595, "INCLINATION": 74.0172, "RA_OF_ASC_NODE": 124.5765, "ARG_OF_PERICENTER": 271.443, "MEAN_ANOMALY": 87.7527, "EPHEMERIS_TYPE": 0, "CLASSIFICATION_TYPE": "U", "NORAD_CAT_ID": 34949, "ELEMENT_SET_NO": 999, "REV_AT_EPOCH": 88249, "BSTAR": 0.0010189361, "MEAN_MOTION_DOT": 7.012e-05, "MEAN_MOTION_DDOT": 0}, "tle": {"line1": "1 34949U 93036AEC 25339.10154899  .00007012  00000+0  10189-2 0  9999", "line2": "2 34949  74.0172 124.5765 0080459 271.4430  87.7527 14.73914183882497"}}, "geometry": {"type": "Point", "coordinates": [178.36743425337266, 70.77592932427832]}}, {"type": "Feature", "properties": {"norad_id": 34953, "name": "COSMOS 2251 DEB", "group": "cosmos-2251-debris", "lat": 0.2210270016647397, "lon": -139.30743449858977, "alt_km": 700.3769158679461, "timestamp": "2025-12-05T20:43:02.449102+00:00", "meta": {"OBJECT_NAME": "COSMOS 2251 DEB", "OBJECT_ID": "1993-036AEG", "EPOCH": "2025-12-04T21:32:32.080128", "MEAN_MOTION": 14.68848312, "ECCENTRICITY": 0.0057673, "INCLINATION": 74.0936, "RA_OF_ASC_NODE": 42.6171, "ARG_OF_PERICENTER": 37.0776, "MEAN_ANOMALY": 78.1748, "EPHEMERIS_TYPE": 0, "CLASSIFICATION_TYPE": "U", "NORAD_CAT_ID": 34953, "ELEMENT_SET_NO": 999, "REV_AT_EPOCH": 88013, "BSTAR": 0.0018269, "MEAN_MOTION_DOT": 0.00010934, "MEAN_MOTION_DDOT": 0}, "tle": {"line1": "1 34953U 93036AEG 25338.89759352  .00010934  00000+0  18269-2 0  9998", "line2": "2 34953  74.0936  42.6171 0057673  37.0776  78.1748 14.68848312880134"}}, "geometry": {"type": "Point", "coordinates": [-139.30743449858977, 0.2210270016647397]}}]}